[{"OBJECT_NAME":"STARLINK-31855","OBJECT_ID":"2024-097D","EPOCH":"2026-03-09T21:50:22.989120","MEAN_MOTION":15.27567018,"ECCENTRICITY":0.00022188,"INCLINATION":42.9949,"RA_OF_ASC_NODE":272.8375,"ARG_OF_PERICENTER":245.0971,"MEAN_ANOMALY":114.965,"EPHEMERIS_TYPE":0,"CLASSIFICATION_TYPE":"U","NORAD_CAT_ID":59838,"ELEMENT_SET_NO":999,"REV_AT_EPOCH":10195,"BSTAR":0.0010951857,"MEAN_MOTION_DOT":0.00029987,"MEAN_MOTION_DDOT":0},{"OBJECT_NAME":"OBJECT G","OBJECT_ID":"2025-155G","EPOCH":"2026-03-09T22:09:56.639808","MEAN_MOTION":15.27590702,"ECCENTRICITY":0.00081871,"INCLINATION":97.4488,"RA_OF_ASC_NODE":37.3259,"ARG_OF_PERICENTER":154.1528,"MEAN_ANOMALY":206.0122,"EPHEMERIS_TYPE":0,"CLASSIFICATION_TYPE":"U","NORAD_CAT_ID":64882,"ELEMENT_SET_NO":999,"REV_AT_EPOCH":6559,"BSTAR":0.0004792617,"MEAN_MOTION_DOT":0.00012876,"MEAN_MOTION_DDOT":0}]
